start=new Date('2021-11-26T00:00:00.000Z').valueOf();
sats=[{"BSTAR":"0.01867400000000","FILE":"3224126","ARG_OF_PERICENTER":"329.4372","ECCENTRICITY":"0.00012210","OBJECT_NAME":"STARLINK-1898","REF_FRAME":"TEME","TLE_LINE1":"1 46745U 20074G   21329.78127688  .00723301  00000-0  18674-1 0  9996","TLE_LINE2":"2 46745  53.0509 144.6876 0001221 329.4372  30.6558 15.36508242 60832","RCS_SIZE":"LARGE","RA_OF_ASC_NODE":"144.6876","ELEMENT_SET_NO":"999","MEAN_MOTION_DDOT":"0.0000000000000","DECAY_DATE":null,"MEAN_MOTION_DOT":"0.00723301","REV_AT_EPOCH":"6083","SITE":"AFETR","SEMIMAJOR_AXIS":"6834.581","APOAPSIS":"457.281","COUNTRY_CODE":"US","EPHEMERIS_TYPE":"0","PERIAPSIS":"455.612","EPOCH":"2021-11-25T18:45:02.322432","MEAN_ELEMENT_THEORY":"SGP4","LAUNCH_DATE":"2020-10-24","TIME_SYSTEM":"UTC","NORAD_CAT_ID":"46745","GP_ID":"190492327","PERIOD":"93.719","INCLINATION":"53.0509","CLASSIFICATION_TYPE":"U","OBJECT_ID":"2020-074G","OBJECT_TYPE":"PAYLOAD","CENTER_NAME":"EARTH","MEAN_MOTION":"15.36508242","MEAN_ANOMALY":"30.6558"},{"MEAN_MOTION_DDOT":"0.0000000000000","TLE_LINE2":"2 46746  53.0542 146.8098 0001925  83.2312 276.8896 15.06403986 60802","RCS_SIZE":"LARGE","ELEMENT_SET_NO":"999","RA_OF_ASC_NODE":"146.8098","TLE_LINE1":"1 46746U 20074H   21329.76984824  .00000677  00000-0  64349-4 0  9995","MEAN_MOTION_DOT":"0.00000677","REV_AT_EPOCH":"6080","DECAY_DATE":null,"ARG_OF_PERICENTER":"83.2312","FILE":"3224126","BSTAR":"0.00006434900000","REF_FRAME":"TEME","OBJECT_NAME":"STARLINK-1905","ECCENTRICITY":"0.00019250","CLASSIFICATION_TYPE":"U","PERIOD":"95.592","GP_ID":"190492577","INCLINATION":"53.0542","TIME_SYSTEM":"UTC","NORAD_CAT_ID":"46746","EPOCH":"2021-11-25T18:28:34.887936","MEAN_ELEMENT_THEORY":"SGP4","LAUNCH_DATE":"2020-10-24","MEAN_MOTION":"15.06403986","MEAN_ANOMALY":"276.8896","CENTER_NAME":"EARTH","OBJECT_ID":"2020-074H","OBJECT_TYPE":"PAYLOAD","SITE":"AFETR","SEMIMAJOR_AXIS":"6925.336","APOAPSIS":"548.534","PERIAPSIS":"545.868","EPHEMERIS_TYPE":"0","COUNTRY_CODE":"US"},{"REV_AT_EPOCH":"6080","MEAN_MOTION_DOT":"0.00001222","DECAY_DATE":null,"TLE_LINE2":"2 46747  53.0531 146.8895 0001905  80.0086 280.1118 15.06399053 60801","ELEMENT_SET_NO":"999","RCS_SIZE":"LARGE","RA_OF_ASC_NODE":"146.8895","MEAN_MOTION_DDOT":"0.0000000000000","TLE_LINE1":"1 46747U 20074J   21329.75144406  .00001222  00000-0  10094-3 0  9993","OBJECT_NAME":"STARLINK-1908","REF_FRAME":"TEME","ECCENTRICITY":"0.00019050","ARG_OF_PERICENTER":"80.0086","BSTAR":"0.00010094000000","FILE":"3224126","CENTER_NAME":"EARTH","MEAN_MOTION":"15.06399053","MEAN_ANOMALY":"280.1118","OBJECT_ID":"2020-074J","OBJECT_TYPE":"PAYLOAD","PERIOD":"95.592","GP_ID":"190493827","INCLINATION":"53.0531","CLASSIFICATION_TYPE":"U","EPOCH":"2021-11-25T18:02:04.766784","MEAN_ELEMENT_THEORY":"SGP4","LAUNCH_DATE":"2020-10-24","TIME_SYSTEM":"UTC","NORAD_CAT_ID":"46747","PERIAPSIS":"545.897","COUNTRY_CODE":"US","EPHEMERIS_TYPE":"0","SEMIMAJOR_AXIS":"6925.351","SITE":"AFETR","APOAPSIS":"548.536"},{"ECCENTRICITY":"0.00026600","REF_FRAME":"TEME","OBJECT_NAME":"STARLINK-1910","FILE":"3224126","BSTAR":"0.00009124700000","ARG_OF_PERICENTER":"69.6971","DECAY_DATE":null,"MEAN_MOTION_DOT":"0.00001078","REV_AT_EPOCH":"6080","TLE_LINE1":"1 46748U 20074K   21329.75880210  .00001078  00000-0  91247-4 0  9993","MEAN_MOTION_DDOT":"0.0000000000000","ELEMENT_SET_NO":"999","RCS_SIZE":"LARGE","RA_OF_ASC_NODE":"146.8690","TLE_LINE2":"2 46748  53.0540 146.8690 0002660  69.6971 290.4303 15.06403599 60801","EPHEMERIS_TYPE":"0","COUNTRY_CODE":"US","PERIAPSIS":"545.360","APOAPSIS":"549.045","SEMIMAJOR_AXIS":"6925.338","SITE":"AFETR","OBJECT_ID":"2020-074K","OBJECT_TYPE":"PAYLOAD","MEAN_ANOMALY":"290.4303","MEAN_MOTION":"15.06403599","CENTER_NAME":"EARTH","NORAD_CAT_ID":"46748","TIME_SYSTEM":"UTC","LAUNCH_DATE":"2020-10-24","MEAN_ELEMENT_THEORY":"SGP4","EPOCH":"2021-11-25T18:12:40.501440","CLASSIFICATION_TYPE":"U","INCLINATION":"53.0540","PERIOD":"95.592","GP_ID":"190494078"},{"OBJECT_TYPE":"PAYLOAD","OBJECT_ID":"2020-074L","CENTER_NAME":"EARTH","MEAN_ANOMALY":"276.7215","MEAN_MOTION":"15.06394300","MEAN_ELEMENT_THEORY":"SGP4","LAUNCH_DATE":"2020-10-24","EPOCH":"2021-11-25T18:23:18.202560","NORAD_CAT_ID":"46749","TIME_SYSTEM":"UTC","INCLINATION":"53.0542","GP_ID":"190492826","PERIOD":"95.593","CLASSIFICATION_TYPE":"U","COUNTRY_CODE":"US","EPHEMERIS_TYPE":"0","PERIAPSIS":"545.757","APOAPSIS":"548.705","SEMIMAJOR_AXIS":"6925.366","SITE":"AFETR","DECAY_DATE":null,"REV_AT_EPOCH":"6080","MEAN_MOTION_DOT":"0.00000597","TLE_LINE1":"1 46749U 20074L   21329.76618290  .00000597  00000-0  58991-4 0  9996","ELEMENT_SET_NO":"999","RCS_SIZE":"LARGE","RA_OF_ASC_NODE":"146.8329","TLE_LINE2":"2 46749  53.0542 146.8329 0002129  83.4017 276.7215 15.06394300 60806","MEAN_MOTION_DDOT":"0.0000000000000","ECCENTRICITY":"0.00021290","OBJECT_NAME":"STARLINK-1911","REF_FRAME":"TEME","BSTAR":"0.00005899100000","FILE":"3224126","ARG_OF_PERICENTER":"83.4017"},{"TLE_LINE1":"1 46751U 20074N   21329.76247499  .00000694  00000-0  65494-4 0  9992","MEAN_MOTION_DDOT":"0.0000000000000","TLE_LINE2":"2 46751  53.0536 146.8542 0002064  82.4968 277.6255 15.06405008 60803","RCS_SIZE":"LARGE","RA_OF_ASC_NODE":"146.8542","ELEMENT_SET_NO":"999","DECAY_DATE":null,"REV_AT_EPOCH":"6080","MEAN_MOTION_DOT":"0.00000694","FILE":"3224126","BSTAR":"0.00006549400000","ARG_OF_PERICENTER":"82.4968","ECCENTRICITY":"0.00020640","REF_FRAME":"TEME","OBJECT_NAME":"STARLINK-1920","TIME_SYSTEM":"UTC","NORAD_CAT_ID":"46751","EPOCH":"2021-11-25T18:17:57.839136","MEAN_ELEMENT_THEORY":"SGP4","LAUNCH_DATE":"2020-10-24","CLASSIFICATION_TYPE":"U","PERIOD":"95.592","GP_ID":"190493076","INCLINATION":"53.0536","OBJECT_TYPE":"PAYLOAD","OBJECT_ID":"2020-074N","MEAN_MOTION":"15.06405008","MEAN_ANOMALY":"277.6255","CENTER_NAME":"EARTH","SITE":"AFETR","SEMIMAJOR_AXIS":"6925.333","APOAPSIS":"548.628","EPHEMERIS_TYPE":"0","COUNTRY_CODE":"US","PERIAPSIS":"545.769"},{"APOAPSIS":"549.019","SITE":"AFETR","SEMIMAJOR_AXIS":"6925.359","COUNTRY_CODE":"US","EPHEMERIS_TYPE":"0","PERIAPSIS":"545.428","LAUNCH_DATE":"2020-10-24","MEAN_ELEMENT_THEORY":"SGP4","EPOCH":"2021-11-25T18:33:54.836640","NORAD_CAT_ID":"46752","TIME_SYSTEM":"UTC","INCLINATION":"53.0525","GP_ID":"190493329","PERIOD":"95.592","CLASSIFICATION_TYPE":"U","OBJECT_ID":"2020-074P","OBJECT_TYPE":"PAYLOAD","CENTER_NAME":"EARTH","MEAN_ANOMALY":"286.9408","MEAN_MOTION":"15.06396730","BSTAR":"0.00006918900000","FILE":"3224126","ARG_OF_PERICENTER":"73.1865","ECCENTRICITY":"0.00025930","OBJECT_NAME":"STARLINK-1921","REF_FRAME":"TEME","TLE_LINE1":"1 46752U 20074P   21329.77355135  .00000749  00000-0  69189-4 0  9997","RCS_SIZE":"LARGE","ELEMENT_SET_NO":"999","RA_OF_ASC_NODE":"146.8062","TLE_LINE2":"2 46752  53.0525 146.8062 0002593  73.1865 286.9408 15.06396730 60803","MEAN_MOTION_DDOT":"0.0000000000000","DECAY_DATE":null,"MEAN_MOTION_DOT":"0.00000749","REV_AT_EPOCH":"6080"},{"APOAPSIS":"548.665","SITE":"AFETR","SEMIMAJOR_AXIS":"6925.346","PERIAPSIS":"545.757","COUNTRY_CODE":"US","EPHEMERIS_TYPE":"0","INCLINATION":"53.0537","PERIOD":"95.592","GP_ID":"190493580","CLASSIFICATION_TYPE":"U","LAUNCH_DATE":"2020-10-24","MEAN_ELEMENT_THEORY":"SGP4","EPOCH":"2021-11-25T14:35:03.694560","NORAD_CAT_ID":"46753","TIME_SYSTEM":"UTC","CENTER_NAME":"EARTH","MEAN_ANOMALY":"269.4177","MEAN_MOTION":"15.06400843","OBJECT_ID":"2020-074Q","OBJECT_TYPE":"PAYLOAD","ARG_OF_PERICENTER":"90.7052","BSTAR":"0.00006232200000","FILE":"3224126","OBJECT_NAME":"STARLINK-1922","REF_FRAME":"TEME","ECCENTRICITY":"0.00021000","ELEMENT_SET_NO":"999","RCS_SIZE":"LARGE","RA_OF_ASC_NODE":"147.5385","TLE_LINE2":"2 46753  53.0537 147.5385 0002100  90.7052 269.4177 15.06400843 60787","MEAN_MOTION_DDOT":"0.0000000000000","TLE_LINE1":"1 46753U 20074Q   21329.60768165  .00000647  00000-0  62322-4 0  9990","REV_AT_EPOCH":"6078","MEAN_MOTION_DOT":"0.00000647","DECAY_DATE":null},{"PERIAPSIS":"545.810","EPHEMERIS_TYPE":"0","COUNTRY_CODE":"US","APOAPSIS":"548.585","SITE":"AFETR","SEMIMAJOR_AXIS":"6925.332","MEAN_ANOMALY":"279.7882","MEAN_MOTION":"15.06405247","CENTER_NAME":"EARTH","OBJECT_TYPE":"PAYLOAD","OBJECT_ID":"2020-074R","CLASSIFICATION_TYPE":"U","INCLINATION":"53.0530","GP_ID":"190492328","PERIOD":"95.592","NORAD_CAT_ID":"46754","TIME_SYSTEM":"UTC","MEAN_ELEMENT_THEORY":"SGP4","LAUNCH_DATE":"2020-10-24","EPOCH":"2021-11-25T14:45:39.265056","REF_FRAME":"TEME","OBJECT_NAME":"STARLINK-1923","ECCENTRICITY":"0.00020040","ARG_OF_PERICENTER":"80.3333","FILE":"3224126","BSTAR":"0.00007574100000","MEAN_MOTION_DOT":"0.00000847","REV_AT_EPOCH":"6078","DECAY_DATE":null,"MEAN_MOTION_DDOT":"0.0000000000000","ELEMENT_SET_NO":"999","RCS_SIZE":"LARGE","RA_OF_ASC_NODE":"147.5102","TLE_LINE2":"2 46754  53.0530 147.5102 0002004  80.3333 279.7882 15.06405247 60788","TLE_LINE1":"1 46754U 20074R   21329.61503779  .00000847  00000-0  75741-4 0  9991"},{"OBJECT_ID":"2020-074S","OBJECT_TYPE":"PAYLOAD","MEAN_MOTION":"15.06399182","MEAN_ANOMALY":"279.0932","CENTER_NAME":"EARTH","TIME_SYSTEM":"UTC","NORAD_CAT_ID":"46755","EPOCH":"2021-11-25T18:04:04.073952","MEAN_ELEMENT_THEORY":"SGP4","LAUNCH_DATE":"2020-10-24","CLASSIFICATION_TYPE":"U","PERIOD":"95.592","GP_ID":"190492578","INCLINATION":"53.0529","EPHEMERIS_TYPE":"0","COUNTRY_CODE":"US","PERIAPSIS":"546.010","SEMIMAJOR_AXIS":"6925.351","SITE":"AFETR","APOAPSIS":"548.422","DECAY_DATE":null,"REV_AT_EPOCH":"6073","MEAN_MOTION_DOT":"0.00000902","TLE_LINE1":"1 46755U 20074S   21329.75282493  .00000902  00000-0  79461-4 0  9999","MEAN_MOTION_DDOT":"0.0000000000000","TLE_LINE2":"2 46755  53.0529 151.8971 0001742  81.0254 279.0932 15.06399182 60731","ELEMENT_SET_NO":"999","RCS_SIZE":"LARGE","RA_OF_ASC_NODE":"151.8971","ECCENTRICITY":"0.00017420","REF_FRAME":"TEME","OBJECT_NAME":"STARLINK-1924","FILE":"3224126","BSTAR":"0.00007946100000","ARG_OF_PERICENTER":"81.0254"}];
